TEVEL2-1                
1 63217U 25052H   26068.64782323  .00020683  00000+0  70600-3 0  9994
2 63217  97.3991 324.7682 0004767 104.8919 255.2849 15.30341923 54855
STARLINK-34377          
1 64279U 25120Z   26068.53285317  .00031252  00000+0  10630-2 0  9998
2 64279  53.1590 117.3068 0001518  91.6174 268.5000 15.30196282 43894
